[Satellite]
VERSION=1.1
NAME=Oculus-ASR
NICKNAME=Oculus-ASR
TLE1=1 44348U 19036K   22335.48488677  .00106551 -34575-5  60429-3 0  9991
TLE2=2 44348  28.4937 101.5257 0160387  56.7001 304.8854 15.61413126190432
STATUS=0
